[{"OBJECT_NAME":"STARLINK-3928","OBJECT_ID":"2022-052J","EPOCH":"2025-08-13T11:01:47.991072","MEAN_MOTION":15.08869312,"ECCENTRICITY":0.0001298,"INCLINATION":53.2167,"RA_OF_ASC_NODE":133.9016,"ARG_OF_PERICENTER":103.4522,"MEAN_ANOMALY":256.6614,"EPHEMERIS_TYPE":0,"CLASSIFICATION_TYPE":"U","NORAD_CAT_ID":52606,"ELEMENT_SET_NO":999,"REV_AT_EPOCH":17942,"BSTAR":-0.00018309,"MEAN_MOTION_DOT":-3.203e-5,"MEAN_MOTION_DDOT":0},{"OBJECT_NAME":"STARLINK-3947","OBJECT_ID":"2022-052K","EPOCH":"2025-08-13T11:47:32.482752","MEAN_MOTION":15.08852424,"ECCENTRICITY":0.0001581,"INCLINATION":53.2208,"RA_OF_ASC_NODE":138.7696,"ARG_OF_PERICENTER":86.223,"MEAN_ANOMALY":273.8943,"EPHEMERIS_TYPE":0,"CLASSIFICATION_TYPE":"U","NORAD_CAT_ID":52607,"ELEMENT_SET_NO":999,"REV_AT_EPOCH":17934,"BSTAR":0.00012223,"MEAN_MOTION_DOT":1.658e-5,"MEAN_MOTION_DDOT":0},{"OBJECT_NAME":"STARLINK-3979","OBJECT_ID":"2022-052L","EPOCH":"2025-08-13T10:51:12.150144","MEAN_MOTION":15.08838522,"ECCENTRICITY":0.0001371,"INCLINATION":53.2165,"RA_OF_ASC_NODE":133.9367,"ARG_OF_PERICENTER":83.1707,"MEAN_ANOMALY":276.9441,"EPHEMERIS_TYPE":0,"CLASSIFICATION_TYPE":"U","NORAD_CAT_ID":52608,"ELEMENT_SET_NO":999,"REV_AT_EPOCH":17942,"BSTAR":8.635e-5,"MEAN_MOTION_DOT":1.087e-5,"MEAN_MOTION_DDOT":0},{"OBJECT_NAME":"STARLINK-3997","OBJECT_ID":"2022-052M","EPOCH":"2025-08-13T10:35:17.756736","MEAN_MOTION":15.08827571,"ECCENTRICITY":0.000129,"INCLINATION":53.2165,"RA_OF_ASC_NODE":133.9372,"ARG_OF_PERICENTER":80.5581,"MEAN_ANOMALY":279.5557,"EPHEMERIS_TYPE":0,"CLASSIFICATION_TYPE":"U","NORAD_CAT_ID":52609,"ELEMENT_SET_NO":999,"REV_AT_EPOCH":17942,"BSTAR":0.00019853,"MEAN_MOTION_DOT":2.872e-5,"MEAN_MOTION_DDOT":0},{"OBJECT_NAME":"STARLINK-3998","OBJECT_ID":"2022-052N","EPOCH":"2025-08-13T11:51:28.631232","MEAN_MOTION":15.08840559,"ECCENTRICITY":0.0001515,"INCLINATION":53.2156,"RA_OF_ASC_NODE":138.7503,"ARG_OF_PERICENTER":82.4291,"MEAN_ANOMALY":277.6874,"EPHEMERIS_TYPE":0,"CLASSIFICATION_TYPE":"U","NORAD_CAT_ID":52610,"ELEMENT_SET_NO":999,"REV_AT_EPOCH":17935,"BSTAR":6.1197e-5,"MEAN_MOTION_DOT":6.86e-6,"MEAN_MOTION_DDOT":0},{"OBJECT_NAME":"STARLINK-3980","OBJECT_ID":"2022-052P","EPOCH":"2025-08-13T11:40:52.837824","MEAN_MOTION":15.0884128,"ECCENTRICITY":0.0001846,"INCLINATION":53.2206,"RA_OF_ASC_NODE":138.7808,"ARG_OF_PERICENTER":81.2465,"MEAN_ANOMALY":278.8736,"EPHEMERIS_TYPE":0,"CLASSIFICATION_TYPE":"U","NORAD_CAT_ID":52611,"ELEMENT_SET_NO":999,"REV_AT_EPOCH":17935,"BSTAR":6.1606e-5,"MEAN_MOTION_DOT":6.93e-6,"MEAN_MOTION_DDOT":0},{"OBJECT_NAME":"STARLINK-4002","OBJECT_ID":"2022-052Q","EPOCH":"2025-08-13T10:45:54.306144","MEAN_MOTION":15.08837447,"ECCENTRICITY":0.0001367,"INCLINATION":53.2175,"RA_OF_ASC_NODE":133.9548,"ARG_OF_PERICENTER":93.5058,"MEAN_ANOMALY":266.609,"EPHEMERIS_TYPE":0,"CLASSIFICATION_TYPE":"U","NORAD_CAT_ID":52612,"ELEMENT_SET_NO":999,"REV_AT_EPOCH":17942,"BSTAR":2.3942e-5,"MEAN_MOTION_DOT":9.3e-7,"MEAN_MOTION_DDOT":0},{"OBJECT_NAME":"STARLINK-3982","OBJECT_ID":"2022-052S","EPOCH":"2025-08-13T10:26:01.741632","MEAN_MOTION":15.08852986,"ECCENTRICITY":0.0001643,"INCLINATION":53.215,"RA_OF_ASC_NODE":124.0139,"ARG_OF_PERICENTER":86.571,"MEAN_ANOMALY":273.547,"EPHEMERIS_TYPE":0,"CLASSIFICATION_TYPE":"U","NORAD_CAT_ID":52614,"ELEMENT_SET_NO":999,"REV_AT_EPOCH":17955,"BSTAR":0.00033986,"MEAN_MOTION_DOT":5.127e-5,"MEAN_MOTION_DDOT":0},{"OBJECT_NAME":"STARLINK-4011","OBJECT_ID":"2022-052T","EPOCH":"2025-08-13T11:35:34.915200","MEAN_MOTION":15.08840322,"ECCENTRICITY":0.0001427,"INCLINATION":53.2178,"RA_OF_ASC_NODE":138.7959,"ARG_OF_PERICENTER":88.2391,"MEAN_ANOMALY":271.8765,"EPHEMERIS_TYPE":0,"CLASSIFICATION_TYPE":"U","NORAD_CAT_ID":52615,"ELEMENT_SET_NO":999,"REV_AT_EPOCH":17934,"BSTAR":5.3072e-5,"MEAN_MOTION_DOT":5.57e-6,"MEAN_MOTION_DDOT":0},{"OBJECT_NAME":"STARLINK-4015","OBJECT_ID":"2022-052U","EPOCH":"2025-08-13T10:15:26.110656","MEAN_MOTION":15.08838035,"ECCENTRICITY":0.0001345,"INCLINATION":53.218,"RA_OF_ASC_NODE":124.0499,"ARG_OF_PERICENTER":99.6384,"MEAN_ANOMALY":260.476,"EPHEMERIS_TYPE":0,"CLASSIFICATION_TYPE":"U","NORAD_CAT_ID":52616,"ELEMENT_SET_NO":999,"REV_AT_EPOCH":17955,"BSTAR":3.1485e-5,"MEAN_MOTION_DOT":2.13e-6,"MEAN_MOTION_DDOT":0},{"OBJECT_NAME":"STARLINK-3996","OBJECT_ID":"2022-052V","EPOCH":"2025-08-13T10:04:50.115936","MEAN_MOTION":15.08836467,"ECCENTRICITY":0.0001269,"INCLINATION":53.2169,"RA_OF_ASC_NODE":124.0816,"ARG_OF_PERICENTER":87.2187,"MEAN_ANOMALY":272.895,"EPHEMERIS_TYPE":0,"CLASSIFICATION_TYPE":"U","NORAD_CAT_ID":52617,"ELEMENT_SET_NO":999,"REV_AT_EPOCH":17954,"BSTAR":0.00010178,"MEAN_MOTION_DOT":1.332e-5,"MEAN_MOTION_DDOT":0},{"OBJECT_NAME":"STARLINK-3983","OBJECT_ID":"2022-052W","EPOCH":"2025-08-13T10:10:08.215680","MEAN_MOTION":15.08836389,"ECCENTRICITY":0.0001318,"INCLINATION":53.2179,"RA_OF_ASC_NODE":124.066,"ARG_OF_PERICENTER":88.043,"MEAN_ANOMALY":272.0713,"EPHEMERIS_TYPE":0,"CLASSIFICATION_TYPE":"U","NORAD_CAT_ID":52618,"ELEMENT_SET_NO":999,"REV_AT_EPOCH":17954,"BSTAR":5.9872e-6,"MEAN_MOTION_DOT":-1.93e-6,"MEAN_MOTION_DDOT":0},{"OBJECT_NAME":"STARLINK-3741","OBJECT_ID":"2022-052X","EPOCH":"2025-08-13T09:59:32.213184","MEAN_MOTION":15.0883477,"ECCENTRICITY":0.000131,"INCLINATION":53.2178,"RA_OF_ASC_NODE":124.091,"ARG_OF_PERICENTER":97.8082,"MEAN_ANOMALY":262.3059,"EPHEMERIS_TYPE":0,"CLASSIFICATION_TYPE":"U","NORAD_CAT_ID":52619,"ELEMENT_SET_NO":999,"REV_AT_EPOCH":17954,"BSTAR":2.7801e-5,"MEAN_MOTION_DOT":1.55e-6,"MEAN_MOTION_DDOT":0},{"OBJECT_NAME":"STARLINK-3975","OBJECT_ID":"2022-052Y","EPOCH":"2025-08-13T03:33:21.172608","MEAN_MOTION":15.08839178,"ECCENTRICITY":0.0001358,"INCLINATION":53.2152,"RA_OF_ASC_NODE":140.2997,"ARG_OF_PERICENTER":89.3889,"MEAN_ANOMALY":270.7258,"EPHEMERIS_TYPE":0,"CLASSIFICATION_TYPE":"U","NORAD_CAT_ID":52620,"ELEMENT_SET_NO":999,"REV_AT_EPOCH":17929,"BSTAR":4.4394e-5,"MEAN_MOTION_DOT":4.19e-6,"MEAN_MOTION_DDOT":0},{"OBJECT_NAME":"STARLINK-3984","OBJECT_ID":"2022-052Z","EPOCH":"2025-08-13T09:48:55.813248","MEAN_MOTION":15.08838366,"ECCENTRICITY":0.0001348,"INCLINATION":53.2176,"RA_OF_ASC_NODE":124.131,"ARG_OF_PERICENTER":93.9532,"MEAN_ANOMALY":266.1614,"EPHEMERIS_TYPE":0,"CLASSIFICATION_TYPE":"U","NORAD_CAT_ID":52621,"ELEMENT_SET_NO":999,"REV_AT_EPOCH":17954,"BSTAR":3.6836e-5,"MEAN_MOTION_DOT":2.98e-6,"MEAN_MOTION_DDOT":0},{"OBJECT_NAME":"STARLINK-4008","OBJECT_ID":"2022-052AA","EPOCH":"2025-08-13T04:15:44.645184","MEAN_MOTION":15.0884278,"ECCENTRICITY":0.0001514,"INCLINATION":53.2175,"RA_OF_ASC_NODE":140.1696,"ARG_OF_PERICENTER":86.106,"MEAN_ANOMALY":274.0105,"EPHEMERIS_TYPE":0,"CLASSIFICATION_TYPE":"U","NORAD_CAT_ID":52622,"ELEMENT_SET_NO":999,"REV_AT_EPOCH":17930,"BSTAR":5.7856e-5,"MEAN_MOTION_DOT":6.33e-6,"MEAN_MOTION_DDOT":0},{"OBJECT_NAME":"STARLINK-3986","OBJECT_ID":"2022-052AB","EPOCH":"2025-08-13T03:22:05.793312","MEAN_MOTION":15.08832828,"ECCENTRICITY":0.000146,"INCLINATION":53.2178,"RA_OF_ASC_NODE":125.3363,"ARG_OF_PERICENTER":90.2236,"MEAN_ANOMALY":269.8923,"EPHEMERIS_TYPE":0,"CLASSIFICATION_TYPE":"U","NORAD_CAT_ID":52623,"ELEMENT_SET_NO":999,"REV_AT_EPOCH":17950,"BSTAR":-1.2792e-6,"MEAN_MOTION_DOT":-3.08e-6,"MEAN_MOTION_DDOT":0}]
