STARLINK-3928           
1 52606U 22052J   25225.45958323 -.00003203  00000+0 -18309-3 0  9998
2 52606  53.2167 133.9016 0001298 103.4522 256.6614 15.08869312179421
STARLINK-3947           
1 52607U 22052K   25225.49134818  .00001658  00000+0  12223-3 0  9997
2 52607  53.2208 138.7696 0001581  86.2230 273.8943 15.08852424179347
STARLINK-3979           
1 52608U 22052L   25225.45222396  .00001087  00000+0  86350-4 0  9992
2 52608  53.2165 133.9367 0001371  83.1707 276.9441 15.08838522179423
STARLINK-3997           
1 52609U 22052M   25225.44117774  .00002872  00000+0  19853-3 0  9991
2 52609  53.2165 133.9372 0001290  80.5581 279.5557 15.08827571179420
STARLINK-3998           
1 52610U 22052N   25225.49408138  .00000686  00000+0  61197-4 0  9995
2 52610  53.2156 138.7503 0001515  82.4291 277.6874 15.08840559179354
STARLINK-3980           
1 52611U 22052P   25225.48672266  .00000693  00000+0  61606-4 0  9993
2 52611  53.2206 138.7808 0001846  81.2465 278.8736 15.08841280179358
STARLINK-4002           
1 52612U 22052Q   25225.44854521  .00000093  00000+0  23942-4 0  9991
2 52612  53.2175 133.9548 0001367  93.5058 266.6090 15.08837447179420
STARLINK-3982           
1 52614U 22052S   25225.43474238  .00005127  00000+0  33986-3 0  9996
2 52614  53.2150 124.0139 0001643  86.5710 273.5470 15.08852986179554
STARLINK-4011           
1 52615U 22052T   25225.48304300  .00000557  00000+0  53072-4 0  9995
2 52615  53.2178 138.7959 0001427  88.2391 271.8765 15.08840322179347
STARLINK-4015           
1 52616U 22052U   25225.42738554  .00000213  00000+0  31485-4 0  9995
2 52616  53.2180 124.0499 0001345  99.6384 260.4760 15.08838035179555
STARLINK-3996           
1 52617U 22052V   25225.42002449  .00001332  00000+0  10178-3 0  9991
2 52617  53.2169 124.0816 0001269  87.2187 272.8950 15.08836467179549
STARLINK-3983           
1 52618U 22052W   25225.42370620 -.00000193  00000+0  59872-5 0  9992
2 52618  53.2179 124.0660 0001318  88.0430 272.0713 15.08836389179545
STARLINK-3741           
1 52619U 22052X   25225.41634506  .00000155  00000+0  27801-4 0  9991
2 52619  53.2178 124.0910 0001310  97.8082 262.3059 15.08834770179543
STARLINK-3975           
1 52620U 22052Y   25225.14816172  .00000419  00000+0  44394-4 0  9993
2 52620  53.2152 140.2997 0001358  89.3889 270.7258 15.08839178179298
STARLINK-3984           
1 52621U 22052Z   25225.40897932  .00000298  00000+0  36836-4 0  9993
2 52621  53.2176 124.1310 0001348  93.9532 266.1614 15.08838366179541
STARLINK-4008           
1 52622U 22052AA  25225.17760006  .00000633  00000+0  57856-4 0  9997
2 52622  53.2175 140.1696 0001514  86.1060 274.0105 15.08842780179303
STARLINK-3986           
1 52623U 22052AB  25225.14034483 -.00000308  00000+0 -12792-5 0  9990
2 52623  53.2178 125.3363 0001460  90.2236 269.8923 15.08832828179508
